{
  "type": "FeatureCollection",
  "features": [
    {
      "type": "Feature",
      "properties": {
        "norad_id": 64903,
        "name": "CO3D 1",
        "group": "resource",
        "lat": -50.26503343982858,
        "lon": 79.88977220912327,
        "alt_km": 512.5790961376351,
        "timestamp": "2025-12-20T16:47:35.949508+00:00",
        "meta_object_name": "CO3D 1",
        "meta_object_id": "2025-156E",
        "meta_epoch": "2025-12-20T12:16:38.663040",
        "meta_mean_motion": 15.20197884,
        "meta_eccentricity": 9.17e-05,
        "meta_inclination": 97.4344,
        "meta_ra_of_asc_node": 70.6664,
        "meta_arg_of_pericenter": 77.3547,
        "meta_mean_anomaly": 282.7791,
        "meta_ephemeris_type": 0,
        "meta_classification_type": "U",
        "meta_norad_cat_id": 64903,
        "meta_element_set_no": 999,
        "meta_rev_at_epoch": 2238,
        "meta_bstar": 0.00019761,
        "meta_mean_motion_dot": 4.212e-05,
        "meta_mean_motion_ddot": 0,
        "tle_line1": "1 64903U 25156E   25354.51155860  .00004212  00000+0  19761-3 0  9996",
        "tle_line2": "2 64903  97.4344  70.6664 0000917  77.3547 282.7791 15.20197884 22380"
      },
      "geometry": {
        "type": "Point",
        "coordinates": [
          79.88977220912327,
          -50.26503343982858
        ]
      }
    },
    {
      "type": "Feature",
      "properties": {
        "norad_id": 66514,
        "name": "SENTINEL-6B",
        "group": "resource",
        "lat": 65.83007579931969,
        "lon": -116.34323503472264,
        "alt_km": 1334.24860998462,
        "timestamp": "2025-12-20T16:47:35.949518+00:00",
        "meta_object_name": "SENTINEL-6B",
        "meta_object_id": "2025-264A",
        "meta_epoch": "2025-12-12T06:01:21.428544",
        "meta_mean_motion": 12.81479578,
        "meta_eccentricity": 0.00078482,
        "meta_inclination": 66.0385,
        "meta_ra_of_asc_node": 163.4531,
        "meta_arg_of_pericenter": 270.1376,
        "meta_mean_anomaly": 89.874,
        "meta_ephemeris_type": 0,
        "meta_classification_type": "U",
        "meta_norad_cat_id": 66514,
        "meta_element_set_no": 999,
        "meta_rev_at_epoch": 322,
        "meta_bstar": 0.00018573353,
        "meta_mean_motion_dot": -1.8e-07,
        "meta_mean_motion_ddot": 0,
        "tle_line1": "1 66514U 25264A   25346.25094246 -.00000018  00000+0  18573-3 0  9999",
        "tle_line2": "2 66514  66.0385 163.4531 0007848 270.1376  89.8740 12.81479578  3223"
      },
      "geometry": {
        "type": "Point",
        "coordinates": [
          -116.34323503472264,
          65.83007579931969
        ]
      }
    }
  ]
}